IXPE                    
1 49954U 21121A   24111.91667824  .00011803  00000+0  91808-3 0  9991
2 49954   0.2295  98.1642 0009365 149.6684 184.1926 14.97379351  4297
